NORAD_CAT_ID,OBJECT_NAME,OBJECT_TYPE,EPOCH,MEAN_MOTION,ECCENTRICITY,INCLINATION,RA_OF_ASC_NODE,ARG_OF_PERICENTER,MEAN_ANOMALY,BSTAR,MEAN_MOTION_DOT,MEAN_MOTION_DDOT,TLE_LINE0,TLE_LINE1,TLE_LINE2,SEMIMAJOR_AXIS,PERIOD,APOGEE,PERIGEE,DECAYED
52552.0,STARLINK-3966,PAYLOAD,2024-08-11 02:37:52,15.08849988,0.0001436,53.2159,193.156,100.99,259.1254,4.2349e-05,3.86e-06,0.0,0 STARLINK-3966,1 52552U 22051V   24224.10963617  .00000386  00000-0  42349-4 0  9999,2 52552  53.2159 193.1560 0001436 100.9900 259.1254 15.08849988124627,6917.85,95.437,540.708,538.721,0.0
52552.0,STARLINK-3966,PAYLOAD,2024-08-11 21:42:30,15.08838591,0.0001759,53.2146,189.5879,80.2073,279.9117,0.00018536,2.663e-05,0.0,0 STARLINK-3966,1 52552U 22051V   24224.90452413  .00002663  00000-0  18536-3 0  9994,2 52552  53.2146 189.5879 0001759  80.2073 279.9117 15.08838591124743,6917.885,95.438,540.967,538.533,0.0
52552.0,STARLINK-3966,PAYLOAD,2024-08-12 07:14:48,15.08854239,0.0001468,53.2159,187.7978,103.3947,256.7209,0.00027393,4.076e-05,0.0,0 STARLINK-3966,1 52552U 22051V   24225.30195299  .00004076  00000-0  27393-3 0  9996,2 52552  53.2159 187.7978 0001468 103.3947 256.7209 15.08854239124800,6917.837,95.437,540.717,538.686,0.0
52552.0,STARLINK-3966,PAYLOAD,2024-08-12 15:11:44,15.08855528,0.0001482,53.216,186.3107,101.7339,258.382,0.00026558,3.943e-05,0.0,0 STARLINK-3966,1 52552U 22051V   24225.63315084  .00003943  00000-0  26558-3 0  9992,2 52552  53.2160 186.3107 0001482 101.7339 258.3820 15.08855528124780,6917.833,95.437,540.723,538.673,0.0
52552.0,STARLINK-3966,PAYLOAD,2024-08-13 03:54:51,15.08789846,0.0001491,53.2153,183.9371,93.7103,266.406,-0.0011014,-0.0001775,0.0,0 STARLINK-3966,1 52552U 22051V   24226.16309469 -.00017750  00000-0 -11014-2 0  9994,2 52552  53.2153 183.9371 0001491  93.7103 266.4060 15.08789846124939,6918.034,95.441,540.93,538.867,0.0
52552.0,STARLINK-3966,PAYLOAD,2024-08-13 07:05:38,15.08792154,0.0001511,53.2154,183.342,88.1169,271.9996,-0.00080646,-0.00013083,0.0,0 STARLINK-3966,1 52552U 22051V   24226.29558339 -.00013083  00000-0 -80646-3 0  9993,2 52552  53.2154 183.3420 0001511  88.1169 271.9996 15.08792154124881,6918.027,95.441,540.937,538.846,0.0
52552.0,STARLINK-3966,PAYLOAD,2024-08-14 03:45:39,15.08807173,0.0001591,53.2149,179.4787,77.1054,283.0116,-0.00022132,-3.805e-05,0.0,0 STARLINK-3966,1 52552U 22051V   24227.15671161 -.00003805  00000-0 -22132-3 0  9995,2 52552  53.2149 179.4787 0001591  77.1054 283.0116 15.08807173125085,6917.981,95.44,540.946,538.745,0.0
52552.0,STARLINK-3966,PAYLOAD,2024-08-14 13:17:58,15.08824787,0.0001428,53.2156,177.6963,80.3859,279.7294,0.00020773,3.018e-05,0.0,0 STARLINK-3966,1 52552U 22051V   24227.55415188  .00003018  00000-0  20773-3 0  9997,2 52552  53.2156 177.6963 0001428  80.3859 279.7294 15.08824787125143,6917.927,95.439,540.78,538.804,0.0
52552.0,STARLINK-3966,PAYLOAD,2024-08-15 03:36:26,15.08875048,0.0001215,53.2143,175.0188,74.3563,285.7563,0.0017593,0.00027849,0.0,0 STARLINK-3966,1 52552U 22051V   24228.15030970  .00027849  00000-0  17593-2 0  9999,2 52552  53.2143 175.0188 0001215  74.3563 285.7563 15.08875048125231,6917.773,95.435,540.479,538.798,0.0
52552.0,STARLINK-3966,PAYLOAD,2024-08-15 13:08:44,15.0887877,0.0001275,53.2147,173.2327,83.9248,276.1889,0.0011457,0.00018012,0.0,0 STARLINK-3966,1 52552U 22051V   24228.54774231  .00018012  00000-0  11457-2 0  9992,2 52552  53.2147 173.2327 0001275  83.9248 276.1889 15.08878770125221,6917.762,95.435,540.509,538.745,0.0
52552.0,STARLINK-3966,PAYLOAD,2024-08-16 03:27:12,15.08876353,0.0001333,53.2149,170.5583,104.2633,255.8508,0.00064508,0.00010004,0.0,0 STARLINK-3966,1 52552U 22051V   24229.14389040  .00010004  00000-0  64508-3 0  9998,2 52552  53.2149 170.5583 0001333 104.2633 255.8508 15.08876353125381,6917.769,95.435,540.556,538.712,0.0
52552.0,STARLINK-3966,PAYLOAD,2024-08-17 04:53:21,15.08833519,0.000139,53.2147,165.7994,94.4133,265.7017,-0.00068203,-0.00011124,0.0,0 STARLINK-3966,1 52552U 22051V   24230.20372235 -.00011124  00000-0 -68203-3 0  9997,2 52552  53.2147 165.7994 0001390  94.4133 265.7017 15.08833519125549,6917.9,95.438,540.727,538.804,0.0
52552.0,STARLINK-3966,PAYLOAD,2024-08-18 04:44:09,15.08848976,0.0001524,53.215,161.3386,91.9592,268.1575,0.0012039,0.00018929,0.0,0 STARLINK-3966,1 52552U 22051V   24231.19732883  .00018929  00000-0  12039-2 0  9998,2 52552  53.2150 161.3386 0001524  91.9592 268.1575 15.08848976125695,6917.853,95.437,540.772,538.664,0.0
52552.0,STARLINK-3966,PAYLOAD,2024-08-18 19:02:37,15.08849277,0.0001672,53.2149,158.6636,81.3959,278.7223,0.00080387,0.00012532,0.0,0 STARLINK-3966,1 52552U 22051V   24231.79349180  .00012532  00000-0  80387-3 0  9994,2 52552  53.2149 158.6636 0001672  81.3959 278.7223 15.08849277125786,6917.852,95.437,540.874,538.56,0.0
52552.0,STARLINK-3966,PAYLOAD,2024-08-19 12:31:52,15.08827144,0.0002242,53.2159,155.3901,84.8178,275.3069,0.00087456,0.00013653,0.0,0 STARLINK-3966,1 52552U 22051V   24232.52213727  .00013653  00000-0  87456-3 0  9992,2 52552  53.2159 155.3901 0002242  84.8178 275.3069 15.08827144125893,6917.92,95.438,541.336,538.234,0.0
52552.0,STARLINK-3966,PAYLOAD,2024-08-20 04:25:44,15.08836449,0.0001293,53.2168,152.4151,102.023,258.0907,0.0005531,8.525e-05,0.0,0 STARLINK-3966,1 52552U 22051V   24233.18453764  .00008525  00000-0  55310-3 0  9998,2 52552  53.2168 152.4151 0001293 102.0230 258.0907 15.08836449125926,6917.891,95.438,540.651,538.862,0.0
52552.0,STARLINK-3966,PAYLOAD,2024-08-21 04:16:30,15.08870374,0.0001317,53.2175,147.955,101.8018,258.3122,0.0011484,0.00018051,0.0,0 STARLINK-3966,1 52552U 22051V   24234.17812998  .00018051  00000-0  11484-2 0  9994,2 52552  53.2175 147.9550 0001317 101.8018 258.3122 15.08870374126146,6917.788,95.436,540.564,538.741,0.0
52552.0,STARLINK-3966,PAYLOAD,2024-08-21 18:34:58,15.08853806,0.0001236,53.2161,145.2723,117.4811,242.6306,0.00031587,4.745e-05,0.0,0 STARLINK-3966,1 52552U 22051V   24234.77428765  .00004745  00000-0  31587-3 0  9997,2 52552  53.2161 145.2723 0001236 117.4811 242.6306 15.08853806126239,6917.838,95.437,540.558,538.848,0.0
